NORAD_CAT_ID,OBJECT_NAME,OBJECT_TYPE,EPOCH,MEAN_MOTION,ECCENTRICITY,INCLINATION,RA_OF_ASC_NODE,ARG_OF_PERICENTER,MEAN_ANOMALY,BSTAR,MEAN_MOTION_DOT,MEAN_MOTION_DDOT,TLE_LINE0,TLE_LINE1,TLE_LINE2,SEMIMAJOR_AXIS,PERIOD,APOGEE,PERIGEE,DECAYED
51775.0,STARLINK-3620,PAYLOAD,2022-06-12 22:00:00,15.088119199999998,0.0001754999999999,53.2143,350.3107,60.2025,202.767,0.0027932,0.00044412,0.0,0 STARLINK-3620,1 51775U 22017H   22163.91667824  .00044412  00000-0  27932-2 0  9994,2 51775  53.2143 350.3107 0001755  60.2025 202.7670 15.08811920  1300,6917.965999999999,95.439,541.045,538.617,0.0
51775.0,STARLINK-3620,PAYLOAD,2022-06-13 06:00:02,15.08847239,0.0001595999999999,53.2143,348.8125,64.4647,210.1535,-0.00018594,-3.247e-05,0.0,0 STARLINK-3620,1 51775U 22017H   22164.25002315 -.00003247  00000-0 -18594-3 0  9998,2 51775  53.2143 348.8125 0001596  64.4647 210.1535 15.08847239 17921,6917.858,95.437,540.827,538.619,0.0
51775.0,STARLINK-3620,PAYLOAD,2022-06-13 14:00:01,15.08877048,0.0001551,53.2145,347.316,68.3334,217.815,-0.0026124,-0.00041666,0.0,0 STARLINK-3620,1 51775U 22017H   22164.58334491 -.00041666  00000-0 -26124-2 0  9991,2 51775  53.2145 347.3160 0001551  68.3334 217.8150 15.08877048  1306,6917.767,95.435,540.705,538.559,0.0
51775.0,STARLINK-3620,PAYLOAD,2022-06-13 22:00:00,15.08824493,0.0001587,53.2143,345.821,58.3906,239.3871,0.0016271,0.00025691,0.0,0 STARLINK-3620,1 51775U 22017H   22164.91667824  .00025691  00000-0  16271-2 0  9997,2 51775  53.2143 345.8210 0001587  58.3906 239.3871 15.08824493  1301,6917.928000000001,95.439,540.891,538.695,0.0
51775.0,STARLINK-3620,PAYLOAD,2022-06-14 14:00:01,15.08840749,0.0001361999999999,53.2144,342.8264,65.8893,255.0496,-0.00053197,-8.744e-05,0.0,0 STARLINK-3620,1 51775U 22017H   22165.58334491 -.00008744  00000-0 -53197-3 0  9993,2 51775  53.2144 342.8264 0001362  65.8893 255.0496 15.08840749 18125,6917.878000000002,95.438,540.685,538.8009999999998,0.0
51775.0,STARLINK-3620,PAYLOAD,2022-06-14 22:00:00,15.08819211,0.0001528,53.2141,341.3313,58.2306,274.3024,0.00020131,2.916e-05,0.0,0 STARLINK-3620,1 51775U 22017H   22165.91667824  .00002916  00000-0  20131-3 0  9994,2 51775  53.2141 341.3313 0001528  58.2306 274.3024 15.08819211  1303,6917.944,95.439,540.866,538.752,0.0
51775.0,STARLINK-3620,PAYLOAD,2022-06-15 14:00:01,15.08839387,0.0001457,53.2142,338.3371,68.0116,287.6594,-0.0009821,-0.00015884,0.0,0 STARLINK-3620,1 51775U 22017H   22166.58334491 -.00015884  00000-0 -98210-3 0  9992,2 51775  53.2142 338.3371 0001457  68.0116 287.6594 15.08839387  1308,6917.882,95.438,540.755,538.739,0.0
51775.0,STARLINK-3620,PAYLOAD,2022-06-15 22:00:00,15.08814499,0.0001548,53.2138,336.8419,59.7088,307.5597,0.0033366,0.00053178,0.0,0 STARLINK-3620,1 51775U 22017H   22166.91667824  .00053178  00000-0  33366-2 0  9994,2 51775  53.2138 336.8419 0001548  59.7088 307.5597 15.08814499 18327,6917.958000000001,95.439,540.894,538.752,0.0
51775.0,STARLINK-3620,PAYLOAD,2022-06-16 02:00:01,15.08858776,0.0001499,53.2135,336.0927,61.0902,131.9667,-0.0007642,-0.00012436,0.0,0 STARLINK-3620,1 51775U 22017H   22167.08334491 -.00012436  00000-0 -76420-3 0  9997,2 51775  53.2135 336.0927 0001499  61.0902 131.9667 15.08858776  1309,6917.823,95.436,540.725,538.651,0.0
51775.0,STARLINK-3620,PAYLOAD,2022-06-19 14:00:01,15.08855173,0.0001593,53.2142,320.38,61.7609,73.0105,-0.0014033,-0.00022561,0.0,0 STARLINK-3620,1 51775U 22017H   22170.58334491 -.00022561  00000-0 -14033-2 0  9997,2 51775  53.2142 320.3800 0001593  61.7609  73.0105 15.08855173  1300,6917.834,95.437,540.8009999999998,538.597,0.0
51775.0,STARLINK-3620,PAYLOAD,2022-06-19 20:00:01,15.08834999,0.0001625,53.2142,319.2588,55.5392,357.9430000000001,0.00050579,7.77e-05,0.0,0 STARLINK-3620,1 51775U 22017H   22170.83334491  .00007770  00000-0  50579-3 0  9994,2 51775  53.2142 319.2588 0001625  55.5392 357.9430 15.08834999 18919,6917.896,95.438,540.885,538.637,0.0
51775.0,STARLINK-3620,PAYLOAD,2022-06-19 22:00:00,15.08835667,0.0001602,53.214,318.8844,53.5819,92.7991,0.00039344,5.978e-05,0.0,0 STARLINK-3620,1 51775U 22017H   22170.91667824  .00005978  00000-0  39344-3 0  9997,2 51775  53.2140 318.8844 0001602  53.5819  92.7991 15.08835667  1308,6917.894,95.438,540.867,538.65,0.0
51775.0,STARLINK-3620,PAYLOAD,2022-06-20 12:00:00,15.08833398,0.0001493,53.2163,316.2634,59.7418,16.924,-0.0025364,-0.00040421,0.0,0 STARLINK-3620,1 51775U 22017H   22171.50001157 -.00040421  00000-0 -25364-2 0  9994,2 51775  53.2163 316.2634 0001493  59.7418  16.9240 15.08833398 19014,6917.901,95.438,540.798,538.7330000000002,0.0
51775.0,STARLINK-3620,PAYLOAD,2022-06-20 14:00:01,15.08784304,0.0001531999999999,53.2167,315.8899,55.4648,114.1098,0.0035,0.0005577,0.0,0 STARLINK-3620,1 51775U 22017H   22171.58334491  .00055770  00000-0  35000-2 0  9991,2 51775  53.2167 315.8899 0001532  55.4648 114.1098 15.08784304  1305,6918.051,95.441,540.975,538.856,0.0
51775.0,STARLINK-3620,PAYLOAD,2022-06-20 22:00:00,15.08819669,0.0001673,53.2139,314.395,55.3673,125.7702,0.0019157,0.00030315,0.0,0 STARLINK-3620,1 51775U 22017H   22171.91667824  .00030315  00000-0  19157-2 0  9990,2 51775  53.2139 314.3950 0001673  55.3673 125.7702 15.08819669 19086,6917.943,95.439,540.965,538.65,0.0
51775.0,STARLINK-3620,PAYLOAD,2022-06-21 14:00:01,15.08856689,0.0001591,53.2142,311.4016,60.665,143.6456,-0.00083706,-0.00013591,0.0,0 STARLINK-3620,1 51775U 22017H   22172.58334491 -.00013591  00000-0 -83706-3 0  9996,2 51775  53.2142 311.4016 0001591  60.6650 143.6456 15.08856689  1308,6917.829000000002,95.436,540.795,538.594,0.0
51775.0,STARLINK-3620,PAYLOAD,2022-06-21 22:00:00,15.088646,0.0001583,53.2136,309.9054,55.1891,160.7279,-0.001765,-0.00028287,0.0,0 STARLINK-3620,1 51775U 22017H   22172.91667824 -.00028287  00000-0 -17650-2 0  9994,2 51775  53.2136 309.9054 0001583  55.1891 160.7279 15.08864600  1307,6917.805,95.436,540.765,538.575,0.0
51775.0,STARLINK-3620,PAYLOAD,2022-06-22 00:00:02,15.08878528,0.0001522,53.2136,309.5308,56.2822,252.5983,-0.0043542,-0.00068994,0.0,0 STARLINK-3620,1 51775U 22017H   22173.00002315 -.00068994  00000-0 -43542-2 0  9991,2 51775  53.2136 309.5308 0001522  56.2822 252.5983 15.08878528 19242,6917.763000000001,95.435,540.681,538.575,0.0
51775.0,STARLINK-3620,PAYLOAD,2022-06-22 14:00:01,15.0885299,0.0001535,53.2137,306.9122,60.2369,178.8882,-0.0033125,-0.0005263999999999,0.0,0 STARLINK-3620,1 51775U 22017H   22173.58334491 -.00052640  00000-0 -33125-2 0  9994,2 51775  53.2137 306.9122 0001535  60.2369 178.8882 15.08852990  1304,6917.840999999999,95.437,540.768,538.644,0.0
51775.0,STARLINK-3620,PAYLOAD,2022-06-22 16:00:00,15.08831464,0.0001608,53.2137,306.5384,58.744,273.2854,-0.0011912,-0.00019192,0.0,0 STARLINK-3620,1 51775U 22017H   22173.66667824 -.00019192  00000-0 -11912-2 0  9997,2 51775  53.2137 306.5384 0001608  58.7440 273.2854 15.08831464 19348,6917.906,95.438,540.884,538.659,0.0
51775.0,STARLINK-3620,PAYLOAD,2022-06-22 22:00:00,15.08830735,0.0001591,53.2132,305.4159,56.9931,193.7199,0.00033706,5.079e-05,0.0,0 STARLINK-3620,1 51775U 22017H   22173.91667824  .00005079  00000-0  33706-3 0  9998,2 51775  53.2132 305.4159 0001591  56.9931 193.7199 15.08830735  1302,6917.909000000002,95.438,540.874,538.673,0.0
51775.0,STARLINK-3620,PAYLOAD,2022-06-23 06:00:00,15.08812298,0.0001472,53.2132,303.9176,65.619,196.6861,0.0032901,0.00052424,0.0,0 STARLINK-3620,1 51775U 22017H   22174.25001157  .00052424  00000-0  32901-2 0  9998,2 51775  53.2132 303.9176 0001472  65.6190 196.6861 15.08812298 19431,6917.965,95.439,540.8480000000002,538.812,0.0
51775.0,STARLINK-3620,PAYLOAD,2022-06-23 14:00:01,15.08858314,0.0001534,53.2134,302.4227,61.2096,212.6772,-0.0021554,-0.00034445,0.0,0 STARLINK-3620,1 51775U 22017H   22174.58334491 -.00034445  00000-0 -21554-2 0  9991,2 51775  53.2134 302.4227 0001534  61.2096 212.6772 15.08858314  1306,6917.824000000001,95.436,540.751,538.628,0.0
51775.0,STARLINK-3620,PAYLOAD,2022-06-23 22:00:00,15.08838645,0.0001488,53.2138,300.9262,55.5827,229.9072,-0.0011353,-0.0001831,0.0,0 STARLINK-3620,1 51775U 22017H   22174.91667824 -.00018310  00000-0 -11353-2 0  9996,2 51775  53.2138 300.9262 0001488  55.5827 229.9072 15.08838645 19531,6917.885,95.438,540.779,538.72,0.0
51775.0,STARLINK-3620,PAYLOAD,2022-06-24 14:00:01,15.08840442,0.0001503,53.2149,297.9332,58.8677,249.786,-0.00078176,-0.00012708,0.0,0 STARLINK-3620,1 51775U 22017H   22175.58334491 -.00012708  00000-0 -78176-3 0  9993,2 51775  53.2149 297.9332 0001503  58.8677 249.7860 15.08840442  1302,6917.879,95.438,540.784,538.7040000000002,0.0
51775.0,STARLINK-3620,PAYLOAD,2022-06-24 22:00:01,15.08858048,0.0001528,53.2146,296.4365,55.7002,264.6007,-0.0038,-0.00060289,0.0,0 STARLINK-3620,1 51775U 22017H   22175.91668981 -.00060289  00000-0 -38000-2 0  9992,2 51775  53.2146 296.4365 0001528  55.7002 264.6007 15.08858048 19684,6917.825,95.436,540.747,538.633,0.0
51775.0,STARLINK-3620,PAYLOAD,2022-06-25 14:00:01,15.08832513,0.0001643,53.2149,293.4438,59.4569,283.9462,-0.00069301,-0.00011298,0.0,0 STARLINK-3620,1 51775U 22017H   22176.58334491 -.00011298  00000-0 -69301-3 0  9997,2 51775  53.2149 293.4438 0001643  59.4569 283.9462 15.08832513  1300,6917.903,95.438,540.905,538.632,0.0
51775.0,STARLINK-3620,PAYLOAD,2022-06-25 16:00:00,15.08821555,0.0001675,53.2151,293.0701,58.2838,18.0175,0.00089434,0.00013967,0.0,0 STARLINK-3620,1 51775U 22017H   22176.66667824  .00013967  00000-0  89434-3 0  9997,2 51775  53.2151 293.0701 0001675  58.2838  18.0175 15.08821555 19797,6917.937,95.439,540.961,538.643,0.0
51775.0,STARLINK-3620,PAYLOAD,2022-06-25 22:00:00,15.08850177,0.0001615,53.2149,291.9471,56.0224,298.9591,-0.0011679,-0.00018832,0.0,0 STARLINK-3620,1 51775U 22017H   22176.91667824 -.00018832  00000-0 -11679-2 0  9998,2 51775  53.2149 291.9471 0001615  56.0224 298.9591 15.08850177  1305,6917.849,95.437,540.832,538.597,0.0
